{
  "name": "SATGUS",
  "line1": "1 62713U 25009DJ  26187.19237077  .00007355  00000+0  57366-3 0  9994",
  "line2": "2 62713  97.6863 268.3821 0006581  73.3751 286.8195 15.01443447 80411",
  "fetched_at": "2026-07-07T02:49:07.159448+00:00"
}